OBJECT_NAME,OBJECT_ID,EPOCH,MEAN_MOTION,ECCENTRICITY,INCLINATION,RA_OF_ASC_NODE,ARG_OF_PERICENTER,MEAN_ANOMALY,EPHEMERIS_TYPE,CLASSIFICATION_TYPE,NORAD_CAT_ID,ELEMENT_SET_NO,REV_AT_EPOCH,BSTAR,MEAN_MOTION_DOT,MEAN_MOTION_DDOT
SUOMI NPP,2011-061A,2026-07-13T15:09:47.428416,14.19522375,.0000681,98.7956,135.3280,223.8511,136.2611,0,U,37849,999,76219,.20917077E-4,0,0
YAOGAN-12,2011-066B,2026-07-13T14:43:03.394272,15.26886528,.00109434,97.1134,231.9411,127.0118,233.2125,0,U,37875,999,81607,.20552172E-3,.5367E-4,0
BEIDOU-2 M4,2012-018B,2026-07-13T10:22:03.822816,1.86229496,.00120872,55.6338,303.2030,272.4400,87.4432,0,U,38251,999,9643,0,-.68E-6,0
ARIRANG-3 (KOMPSAT-3),2012-025B,2026-07-13T14:00:19.855296,14.62228208,.00063147,98.1184,151.5904,43.1047,317.0648,0,U,38338,999,75520,.46228583E-4,.186E-5,0
METOP-B,2012-049A,2026-07-13T14:04:07.351680,14.21446095,.00010679,98.6491,245.5569,265.3070,94.7985,0,U,38771,999,71701,.43077209E-4,.51E-6,0
SJ-9A,2012-056A,2026-07-13T13:39:33.622560,14.85526718,.00258277,97.6727,165.5698,167.0735,193.1149,0,U,38860,999,70350,.67775322E-4,.536E-5,0
COSMOS 2484 (RODNIK-S 6),2013-001C,2026-07-13T13:09:01.337760,12.42940606,.00257238,82.4996,205.5033,339.2972,20.7064,0,U,39059,999,61183,.63343051E-3,.98E-6,0
SARAL,2013-009A,2026-07-13T15:30:22.036032,14.32895557,.00016048,98.5554,20.8787,170.5930,189.5285,0,U,39086,999,69939,.30926765E-4,.41E-6,0
STRAND-1,2013-009E,2026-07-13T10:37:14.800224,14.37178253,.00093202,98.3932,14.0322,145.9311,214.2476,0,U,39090,999,70083,.62097746E-4,.142E-5,0
BRITE-AUSTRIA,2013-009F,2026-07-13T11:12:11.478528,14.36552090,.00106667,98.4006,13.2537,155.6045,204.5649,0,U,39091,999,70082,.43851105E-4,.86E-6,0
GAOFEN-1,2013-018A,2026-07-13T15:04:15.155616,14.76518524,.0016927,97.9093,266.1570,176.1151,184.0194,0,U,39150,999,71214,.98385101E-4,.636E-5,0
NEE-01 PEGASO,2013-018B,2026-07-13T09:22:48.647712,14.93784279,.00136726,98.1250,339.4132,79.6258,280.6501,0,U,39151,999,71461,.10395483E-3,.1042E-4,0
PROBA-V,2013-021A,2026-07-13T09:44:02.904288,14.23603272,.00053065,98.3605,171.7202,64.1776,295.9950,0,U,39159,999,68484,.28001748E-4,.23E-6,0
ARIRANG-5 (KOMPSAT-5),2013-042A,2026-07-13T13:40:32.518848,15.04523893,.00055762,97.6210,20.9002,63.3865,296.7931,0,U,39227,999,70782,.43940054E-4,.555E-5,0
GONETS-M 5,2013-048A,2026-07-13T14:21:39.434976,12.42892459,.0017281,82.4846,326.9159,152.9749,207.2234,0,U,39249,999,58216,-.2006203E-3,-.18E-6,0
GONETS-M 7,2013-048C,2026-07-13T15:23:32.278848,12.42915304,.0018058,82.4912,329.8252,154.1737,206.0248,0,U,39251,999,58212,-.26358625E-3,-.27E-6,0
FENGYUN 3C,2013-052A,2026-07-13T14:48:28.173600,14.15760506,.00137418,98.4997,167.2807,310.8487,49.1496,0,U,39260,999,66230,.31548745E-4,.2E-6,0
CASSIOPE,2013-055A,2026-07-13T12:20:58.645824,15.27349248,.02831969,80.9124,34.6894,333.6039,25.0990,0,U,39265,999,67168,.23124323E-3,.21565E-3,-.538015E-6
APRIZESAT 7,2013-066A,2026-07-13T10:49:22.861056,14.91617048,.00371301,97.7721,147.2959,122.8826,237.5975,0,U,39416,999,68514,.48317103E-4,.434E-5,0
ZACUBE-1 (TSHEPISOSAT),2013-066B,2026-07-13T11:14:30.041664,15.01324440,.00439319,97.8010,156.9353,160.7484,199.5412,0,U,39417,999,68467,.10702687E-3,.1341E-4,0
APRIZESAT 8,2013-066K,2026-07-13T15:24:34.951680,14.87695060,.00453598,97.8230,141.7432,197.0303,162.9394,0,U,39425,999,68360,.47309716E-4,.381E-5,0
